<?xml version="1.0" encoding="UTF-8"?>
<ndm xmlns:xsi="http://www.w3.org/2001/XMLSchema-instance" xsi:noNamespaceSchemaLocation="https://sanaregistry.org/r/ndmxml_unqualified/ndmxml-2.0.0-master-2.0.xsd">
<omm id="CCSDS_OMM_VERS" version="2.0">
<header><CREATION_DATE/><ORIGINATOR/></header><body><segment><metadata><OBJECT_NAME>ONEWEB-0320</OBJECT_NAME><OBJECT_ID>2021-083E</OBJECT_ID><CENTER_NAME>EARTH</CENTER_NAME><REF_FRAME>TEME</REF_FRAME><TIME_SYSTEM>UTC</TIME_SYSTEM><MEAN_ELEMENT_THEORY>SGP4</MEAN_ELEMENT_THEORY></metadata><data><meanElements><EPOCH>2025-07-05T14:54:19.832832</EPOCH><MEAN_MOTION>13.18782293</MEAN_MOTION><ECCENTRICITY>.0001757</ECCENTRICITY><INCLINATION>87.9131</INCLINATION><RA_OF_ASC_NODE>44.3295</RA_OF_ASC_NODE><ARG_OF_PERICENTER>83.9292</ARG_OF_PERICENTER><MEAN_ANOMALY>276.2040</MEAN_ANOMALY></meanElements><tleParameters><EPHEMERIS_TYPE>0</EPHEMERIS_TYPE><CLASSIFICATION_TYPE>U</CLASSIFICATION_TYPE><NORAD_CAT_ID>49190</NORAD_CAT_ID><ELEMENT_SET_NO>999</ELEMENT_SET_NO><REV_AT_EPOCH>18430</REV_AT_EPOCH><BSTAR>.13368E-3</BSTAR><MEAN_MOTION_DOT>.66E-6</MEAN_MOTION_DOT><MEAN_MOTION_DDOT>0</MEAN_MOTION_DDOT></tleParameters></data></segment></body></omm>
<omm id="CCSDS_OMM_VERS" version="2.0">
<header><CREATION_DATE/><ORIGINATOR/></header><body><segment><metadata><OBJECT_NAME>ONEWEB-0321</OBJECT_NAME><OBJECT_ID>2021-083F</OBJECT_ID><CENTER_NAME>EARTH</CENTER_NAME><REF_FRAME>TEME</REF_FRAME><TIME_SYSTEM>UTC</TIME_SYSTEM><MEAN_ELEMENT_THEORY>SGP4</MEAN_ELEMENT_THEORY></metadata><data><meanElements><EPOCH>2025-07-05T20:10:51.316608</EPOCH><MEAN_MOTION>13.20771805</MEAN_MOTION><ECCENTRICITY>.0002172</ECCENTRICITY><INCLINATION>87.9269</INCLINATION><RA_OF_ASC_NODE>343.4250</RA_OF_ASC_NODE><ARG_OF_PERICENTER>93.8187</ARG_OF_PERICENTER><MEAN_ANOMALY>266.3194</MEAN_ANOMALY></meanElements><tleParameters><EPHEMERIS_TYPE>0</EPHEMERIS_TYPE><CLASSIFICATION_TYPE>U</CLASSIFICATION_TYPE><NORAD_CAT_ID>49191</NORAD_CAT_ID><ELEMENT_SET_NO>999</ELEMENT_SET_NO><REV_AT_EPOCH>19111</REV_AT_EPOCH><BSTAR>-.39126E-3</BSTAR><MEAN_MOTION_DOT>-.146E-5</MEAN_MOTION_DOT><MEAN_MOTION_DDOT>0</MEAN_MOTION_DDOT></tleParameters></data></segment></body></omm>
<omm id="CCSDS_OMM_VERS" version="2.0">
<header><CREATION_DATE/><ORIGINATOR/></header><body><segment><metadata><OBJECT_NAME>ONEWEB-0322</OBJECT_NAME><OBJECT_ID>2021-083G</OBJECT_ID><CENTER_NAME>EARTH</CENTER_NAME><REF_FRAME>TEME</REF_FRAME><TIME_SYSTEM>UTC</TIME_SYSTEM><MEAN_ELEMENT_THEORY>SGP4</MEAN_ELEMENT_THEORY></metadata><data><meanElements><EPOCH>2025-07-06T01:56:03.186816</EPOCH><MEAN_MOTION>13.13471136</MEAN_MOTION><ECCENTRICITY>.000222</ECCENTRICITY><INCLINATION>87.8959</INCLINATION><RA_OF_ASC_NODE>29.0302</RA_OF_ASC_NODE><ARG_OF_PERICENTER>87.5927</ARG_OF_PERICENTER><MEAN_ANOMALY>272.5456</MEAN_ANOMALY></meanElements><tleParameters><EPHEMERIS_TYPE>0</EPHEMERIS_TYPE><CLASSIFICATION_TYPE>U</CLASSIFICATION_TYPE><NORAD_CAT_ID>49192</NORAD_CAT_ID><ELEMENT_SET_NO>999</ELEMENT_SET_NO><REV_AT_EPOCH>18677</REV_AT_EPOCH><BSTAR>.89143E-3</BSTAR><MEAN_MOTION_DOT>.338E-5</MEAN_MOTION_DOT><MEAN_MOTION_DDOT>0</MEAN_MOTION_DDOT></tleParameters></data></segment></body></omm>
<omm id="CCSDS_OMM_VERS" version="2.0">
<header><CREATION_DATE/><ORIGINATOR/></header><body><segment><metadata><OBJECT_NAME>ONEWEB-0324</OBJECT_NAME><OBJECT_ID>2021-083H</OBJECT_ID><CENTER_NAME>EARTH</CENTER_NAME><REF_FRAME>TEME</REF_FRAME><TIME_SYSTEM>UTC</TIME_SYSTEM><MEAN_ELEMENT_THEORY>SGP4</MEAN_ELEMENT_THEORY></metadata><data><meanElements><EPOCH>2025-07-05T16:24:28.300896</EPOCH><MEAN_MOTION>13.18688768</MEAN_MOTION><ECCENTRICITY>.0001827</ECCENTRICITY><INCLINATION>87.9133</INCLINATION><RA_OF_ASC_NODE>44.2968</RA_OF_ASC_NODE><ARG_OF_PERICENTER>79.3751</ARG_OF_PERICENTER><MEAN_ANOMALY>280.7587</MEAN_ANOMALY></meanElements><tleParameters><EPHEMERIS_TYPE>0</EPHEMERIS_TYPE><CLASSIFICATION_TYPE>U</CLASSIFICATION_TYPE><NORAD_CAT_ID>49193</NORAD_CAT_ID><ELEMENT_SET_NO>999</ELEMENT_SET_NO><REV_AT_EPOCH>18433</REV_AT_EPOCH><BSTAR>-.87886E-4</BSTAR><MEAN_MOTION_DOT>-.22E-6</MEAN_MOTION_DOT><MEAN_MOTION_DDOT>0</MEAN_MOTION_DDOT></tleParameters></data></segment></body></omm>
<omm id="CCSDS_OMM_VERS" version="2.0">
<header><CREATION_DATE/><ORIGINATOR/></header><body><segment><metadata><OBJECT_NAME>ONEWEB-0325</OBJECT_NAME><OBJECT_ID>2021-083J</OBJECT_ID><CENTER_NAME>EARTH</CENTER_NAME><REF_FRAME>TEME</REF_FRAME><TIME_SYSTEM>UTC</TIME_SYSTEM><MEAN_ELEMENT_THEORY>SGP4</MEAN_ELEMENT_THEORY></metadata><data><meanElements><EPOCH>2025-07-06T03:24:51.511968</EPOCH><MEAN_MOTION>13.18802479</MEAN_MOTION><ECCENTRICITY>.000184</ECCENTRICITY><INCLINATION>87.9134</INCLINATION><RA_OF_ASC_NODE>44.2217</RA_OF_ASC_NODE><ARG_OF_PERICENTER>78.2213</ARG_OF_PERICENTER><MEAN_ANOMALY>281.9126</MEAN_ANOMALY></meanElements><tleParameters><EPHEMERIS_TYPE>0</EPHEMERIS_TYPE><CLASSIFICATION_TYPE>U</CLASSIFICATION_TYPE><NORAD_CAT_ID>49194</NORAD_CAT_ID><ELEMENT_SET_NO>999</ELEMENT_SET_NO><REV_AT_EPOCH>18568</REV_AT_EPOCH><BSTAR>-.6278E-2</BSTAR><MEAN_MOTION_DOT>-.2466E-4</MEAN_MOTION_DOT><MEAN_MOTION_DDOT>0</MEAN_MOTION_DDOT></tleParameters></data></segment></body></omm>
<omm id="CCSDS_OMM_VERS" version="2.0">
<header><CREATION_DATE/><ORIGINATOR/></header><body><segment><metadata><OBJECT_NAME>ONEWEB-0326</OBJECT_NAME><OBJECT_ID>2021-083K</OBJECT_ID><CENTER_NAME>EARTH</CENTER_NAME><REF_FRAME>TEME</REF_FRAME><TIME_SYSTEM>UTC</TIME_SYSTEM><MEAN_ELEMENT_THEORY>SGP4</MEAN_ELEMENT_THEORY></metadata><data><meanElements><EPOCH>2025-07-05T15:01:36.512256</EPOCH><MEAN_MOTION>13.18764696</MEAN_MOTION><ECCENTRICITY>.0001413</ECCENTRICITY><INCLINATION>87.9128</INCLINATION><RA_OF_ASC_NODE>44.3148</RA_OF_ASC_NODE><ARG_OF_PERICENTER>87.8768</ARG_OF_PERICENTER><MEAN_ANOMALY>272.2525</MEAN_ANOMALY></meanElements><tleParameters><EPHEMERIS_TYPE>0</EPHEMERIS_TYPE><CLASSIFICATION_TYPE>U</CLASSIFICATION_TYPE><NORAD_CAT_ID>49195</NORAD_CAT_ID><ELEMENT_SET_NO>999</ELEMENT_SET_NO><REV_AT_EPOCH>18432</REV_AT_EPOCH><BSTAR>.14963E-4</BSTAR><MEAN_MOTION_DOT>.19E-6</MEAN_MOTION_DOT><MEAN_MOTION_DDOT>0</MEAN_MOTION_DDOT></tleParameters></data></segment></body></omm>
<omm id="CCSDS_OMM_VERS" version="2.0">
<header><CREATION_DATE/><ORIGINATOR/></header><body><segment><metadata><OBJECT_NAME>ONEWEB-0327</OBJECT_NAME><OBJECT_ID>2021-083L</OBJECT_ID><CENTER_NAME>EARTH</CENTER_NAME><REF_FRAME>TEME</REF_FRAME><TIME_SYSTEM>UTC</TIME_SYSTEM><MEAN_ELEMENT_THEORY>SGP4</MEAN_ELEMENT_THEORY></metadata><data><meanElements><EPOCH>2025-07-05T15:01:11.230752</EPOCH><MEAN_MOTION>13.18766474</MEAN_MOTION><ECCENTRICITY>.0001495</ECCENTRICITY><INCLINATION>87.9130</INCLINATION><RA_OF_ASC_NODE>44.3436</RA_OF_ASC_NODE><ARG_OF_PERICENTER>89.5137</ARG_OF_PERICENTER><MEAN_ANOMALY>270.6166</MEAN_ANOMALY></meanElements><tleParameters><EPHEMERIS_TYPE>0</EPHEMERIS_TYPE><CLASSIFICATION_TYPE>U</CLASSIFICATION_TYPE><NORAD_CAT_ID>49196</NORAD_CAT_ID><ELEMENT_SET_NO>999</ELEMENT_SET_NO><REV_AT_EPOCH>18434</REV_AT_EPOCH><BSTAR>-.37625E-4</BSTAR><MEAN_MOTION_DOT>-.2E-7</MEAN_MOTION_DOT><MEAN_MOTION_DDOT>0</MEAN_MOTION_DDOT></tleParameters></data></segment></body></omm>
<omm id="CCSDS_OMM_VERS" version="2.0">
<header><CREATION_DATE/><ORIGINATOR/></header><body><segment><metadata><OBJECT_NAME>ONEWEB-0328</OBJECT_NAME><OBJECT_ID>2021-083M</OBJECT_ID><CENTER_NAME>EARTH</CENTER_NAME><REF_FRAME>TEME</REF_FRAME><TIME_SYSTEM>UTC</TIME_SYSTEM><MEAN_ELEMENT_THEORY>SGP4</MEAN_ELEMENT_THEORY></metadata><data><meanElements><EPOCH>2025-07-05T14:43:15.118752</EPOCH><MEAN_MOTION>13.13470153</MEAN_MOTION><ECCENTRICITY>.0001765</ECCENTRICITY><INCLINATION>87.8949</INCLINATION><RA_OF_ASC_NODE>29.0657</RA_OF_ASC_NODE><ARG_OF_PERICENTER>82.4635</ARG_OF_PERICENTER><MEAN_ANOMALY>277.6695</MEAN_ANOMALY></meanElements><tleParameters><EPHEMERIS_TYPE>0</EPHEMERIS_TYPE><CLASSIFICATION_TYPE>U</CLASSIFICATION_TYPE><NORAD_CAT_ID>49197</NORAD_CAT_ID><ELEMENT_SET_NO>999</ELEMENT_SET_NO><REV_AT_EPOCH>18540</REV_AT_EPOCH><BSTAR>.35707E-5</BSTAR><MEAN_MOTION_DOT>.14E-6</MEAN_MOTION_DOT><MEAN_MOTION_DDOT>0</MEAN_MOTION_DDOT></tleParameters></data></segment></body></omm>

</ndm>
