ONEWEB-0320             
1 49190U 21083E   25186.62106288  .00000066  00000+0  13368-3 0  9997
2 49190  87.9131  44.3295 0001757  83.9292 276.2040 13.18782293184305
ONEWEB-0321             
1 49191U 21083F   25186.84087172 -.00000146  00000+0 -39126-3 0  9993
2 49191  87.9269 343.4250 0002172  93.8187 266.3194 13.20771805191114
ONEWEB-0322             
1 49192U 21083G   25187.08059244  .00000338  00000+0  89143-3 0  9995
2 49192  87.8959  29.0302 0002220  87.5927 272.5456 13.13471136186773
ONEWEB-0324             
1 49193U 21083H   25186.68366089 -.00000022  00000+0 -87886-4 0  9994
2 49193  87.9133  44.2968 0001827  79.3751 280.7587 13.18688768184334
ONEWEB-0325             
1 49194U 21083J   25187.14226287 -.00002466  00000+0 -62780-2 0  9990
2 49194  87.9134  44.2217 0001840  78.2213 281.9126 13.18802479185687
ONEWEB-0326             
1 49195U 21083K   25186.62611704  .00000019  00000+0  14963-4 0  9997
2 49195  87.9128  44.3148 0001413  87.8768 272.2525 13.18764696184326
ONEWEB-0327             
1 49196U 21083L   25186.62582443 -.00000002  00000+0 -37625-4 0  9999
2 49196  87.9130  44.3436 0001495  89.5137 270.6166 13.18766474184340
ONEWEB-0328             
1 49197U 21083M   25186.61336943  .00000014  00000+0  35707-5 0  9992
2 49197  87.8949  29.0657 0001765  82.4635 277.6695 13.13470153185401
